{
  "type": "FeatureCollection",
  "name": "planet8b_region_footprints",
  "features": [
    {
      "type": "Feature",
      "properties": {
        "region_id": "ca_001",
        "region_number": 1,
        "region_name": "baja_islaNavidad",
        "dataset": "ca",
        "source_tiff_count": 22,
        "geometry_method": "dissolved_source_tiff_bboxes",
        "feature_type": "region_polygon",
        "valid_pixel_count": 56927560
      },
      "geometry": {
        "type": "Polygon",
        "coordinates": [
          [
            [
              -115.21968924997707,
              27.888787641814297
            ],
            [
              -115.2196892,
              27.8887907
            ],
            [
              -115.15384591029697,
              27.887922818886235
            ],
            [
              -115.148279,
              27.8878497
            ],
            [
              -115.14827900439523,
              27.88784944143933
            ],
            [
              -115.1474565,
              27.8878386
            ],
            [
              -115.1483039,
              27.838006
            ],
            [
              -115.2320145,
              27.839104
            ],
            [
              -115.2312053,
              27.8889389
            ],
            [
              -115.21968924997707,
              27.888787641814297
            ]
          ]
        ]
      }
    },
    {
      "type": "Feature",
      "properties": {
        "region_id": "ca_001",
        "region_number": 1,
        "region_name": "baja_islaNavidad",
        "dataset": "ca",
        "source_tiff_count": 22,
        "geometry_method": "dissolved_source_tiff_bboxes",
        "feature_type": "region_centroid",
        "valid_pixel_count": 56927560
      },
      "geometry": {
        "type": "Point",
        "coordinates": [
          -115.18974542267577,
          27.863474450598847
        ]
      }
    },
    {
      "type": "Feature",
      "properties": {
        "region_id": "ca_002",
        "region_number": 2,
        "region_name": "baja_puntaEugenia",
        "dataset": "ca",
        "source_tiff_count": 59,
        "geometry_method": "dissolved_source_tiff_bboxes",
        "feature_type": "region_polygon",
        "valid_pixel_count": 298249585
      },
      "geometry": {
        "type": "Polygon",
        "coordinates": [
          [
            [
              -115.1029972,
              27.803954
            ],
            [
              -115.1018912,
              27.8675087
            ],
            [
              -115.10189082136304,
              27.86750869468663
            ],
            [
              -115.1016703,
              27.8801763
            ],
            [
              -115.0361798,
              27.8792588
            ],
            [
              -115.03617981756302,
              27.879257824739053
            ],
            [
              -115.0320068,
              27.8791993
            ],
            [
              -115.03200680824037,
              27.879198843385343
            ],
            [
              -115.0301792,
              27.8791732
            ],
            [
              -115.03017920731293,
              27.879172795158922
            ],
            [
              -115.0287476,
              27.8791527
            ],
            [
              -115.02874760347325,
              27.879152507862027
            ],
            [
              -115.0280775,
              27.8791431
            ],
            [
              -115.0294558,
              27.8029241
            ],
            [
              -115.1029972,
              27.803954
            ]
          ]
        ]
      }
    },
    {
      "type": "Feature",
      "properties": {
        "region_id": "ca_002",
        "region_number": 2,
        "region_name": "baja_puntaEugenia",
        "dataset": "ca",
        "source_tiff_count": 59,
        "geometry_method": "dissolved_source_tiff_bboxes",
        "feature_type": "region_centroid",
        "valid_pixel_count": 298249585
      },
      "geometry": {
        "type": "Point",
        "coordinates": [
          -115.06555028973392,
          27.841554299452824
        ]
      }
    },
    {
      "type": "Feature",
      "properties": {
        "region_id": "ca_003",
        "region_number": 3,
        "region_name": "sanDiego",
        "dataset": "ca",
        "source_tiff_count": 17,
        "geometry_method": "dissolved_source_tiff_bboxes",
        "feature_type": "region_polygon",
        "valid_pixel_count": 164411162
      },
      "geometry": {
        "type": "Polygon",
        "coordinates": [
          [
            [
              -117.2534201,
              32.8592499
            ],
            [
              -117.2531653,
              32.7694322
            ],
            [
              -117.25316541647312,
              32.769432199719326
            ],
            [
              -117.2531249,
              32.7551435
            ],
            [
              -117.3505474,
              32.7549089
            ],
            [
              -117.3509563,
              32.8590143
            ],
            [
              -117.2534201,
              32.8592499
            ]
          ]
        ]
      }
    },
    {
      "type": "Feature",
      "properties": {
        "region_id": "ca_003",
        "region_number": 3,
        "region_name": "sanDiego",
        "dataset": "ca",
        "source_tiff_count": 17,
        "geometry_method": "dissolved_source_tiff_bboxes",
        "feature_type": "region_centroid",
        "valid_pixel_count": 164411162
      },
      "geometry": {
        "type": "Point",
        "coordinates": [
          -117.30201212745538,
          32.80708926547817
        ]
      }
    },
    {
      "type": "Feature",
      "properties": {
        "region_id": "ca_004",
        "region_number": 4,
        "region_name": "palosVerdes",
        "dataset": "ca",
        "source_tiff_count": 29,
        "geometry_method": "dissolved_source_tiff_bboxes",
        "feature_type": "region_polygon",
        "valid_pixel_count": 429409754
      },
      "geometry": {
        "type": "Polygon",
        "coordinates": [
          [
            [
              -118.2961661,
              33.6628047
            ],
            [
              -118.5125767,
              33.6603456
            ],
            [
              -118.514753,
              33.7843089
            ],
            [
              -118.5121614651633,
              33.784338712459295
            ],
            [
              -118.5121615,
              33.7843407
            ],
            [
              -118.50859825094452,
              33.784381494663535
            ],
            [
              -118.5085983,
              33.7843843
            ],
            [
              -118.49006916975591,
              33.78459616953598
            ],
            [
              -118.4900694,
              33.7846095
            ],
            [
              -118.48767226947399,
              33.784636729553
            ],
            [
              -118.4876723,
              33.7846385
            ],
            [
              -118.48572867490871,
              33.784660443046704
            ],
            [
              -118.4857287,
              33.7846619
            ],
            [
              -118.4740345688968,
              33.784794527256956
            ],
            [
              -118.4740347,
              33.7848022
            ],
            [
              -118.35553381663637,
              33.7861405232358
            ],
            [
              -118.3236246,
              33.7865076
            ],
            [
              -118.32362449721658,
              33.78650090015795
            ],
            [
              -118.312707,
              33.7866242
            ],
            [
              -118.31270684192218,
              33.78661381676032
            ],
            [
              -118.2980313,
              33.7867795
            ],
            [
              -118.2961661,
              33.6628047
            ]
          ]
        ]
      }
    },
    {
      "type": "Feature",
      "properties": {
        "region_id": "ca_004",
        "region_number": 4,
        "region_name": "palosVerdes",
        "dataset": "ca",
        "source_tiff_count": 29,
        "geometry_method": "dissolved_source_tiff_bboxes",
        "feature_type": "region_centroid",
        "valid_pixel_count": 429409754
      },
      "geometry": {
        "type": "Point",
        "coordinates": [
          -118.40538179694627,
          33.723583498991026
        ]
      }
    },
    {
      "type": "Feature",
      "properties": {
        "region_id": "ca_005",
        "region_number": 5,
        "region_name": "channelIslands",
        "dataset": "ca",
        "source_tiff_count": 21,
        "geometry_method": "dissolved_source_tiff_bboxes",
        "feature_type": "region_polygon",
        "valid_pixel_count": 63599295
      },
      "geometry": {
        "type": "Polygon",
        "coordinates": [
          [
            [
              -119.8063816,
              33.9408858
            ],
            [
              -119.9015743,
              33.9386775
            ],
            [
              -119.9034052,
              33.9925325
            ],
            [
              -119.8212927,
              33.9944445
            ],
            [
              -119.82129255290802,
              33.9944400475681
            ],
            [
              -119.8081526,
              33.9947453
            ],
            [
              -119.8063816,
              33.9408858
            ]
          ]
        ]
      }
    },
    {
      "type": "Feature",
      "properties": {
        "region_id": "ca_005",
        "region_number": 5,
        "region_name": "channelIslands",
        "dataset": "ca",
        "source_tiff_count": 21,
        "geometry_method": "dissolved_source_tiff_bboxes",
        "feature_type": "region_centroid",
        "valid_pixel_count": 63599295
      },
      "geometry": {
        "type": "Point",
        "coordinates": [
          -119.85487784028078,
          33.966714079434176
        ]
      }
    },
    {
      "type": "Feature",
      "properties": {
        "region_id": "ca_006",
        "region_number": 6,
        "region_name": "channelIslands",
        "dataset": "ca",
        "source_tiff_count": 35,
        "geometry_method": "dissolved_source_tiff_bboxes",
        "feature_type": "region_polygon",
        "valid_pixel_count": 188114661
      },
      "geometry": {
        "type": "Polygon",
        "coordinates": [
          [
            [
              -119.606453,
              33.9949139
            ],
            [
              -119.60645254209824,
              33.994898898415585
            ],
            [
              -119.5770202,
              33.9955344
            ],
            [
              -119.57701041199607,
              33.99521009974174
            ],
            [
              -119.5770104,
              33.9952101
            ],
            [
              -119.5769062715582,
              33.991759675005795
            ],
            [
              -119.57575,
              33.9534496
            ],
            [
              -119.57575013319219,
              33.95344959712726
            ],
            [
              -119.5756914,
              33.9515034
            ],
            [
              -119.7306833,
              33.9481607
            ],
            [
              -119.7320919,
              33.9921861
            ],
            [
              -119.73154029624241,
              33.99219828259041
            ],
            [
              -119.7315403,
              33.9921984
            ],
            [
              -119.73091194840991,
              33.99221216013234
            ],
            [
              -119.6978934,
              33.9929414
            ],
            [
              -119.69789320504643,
              33.99293523028232
            ],
            [
              -119.6531478,
              33.9939151
            ],
            [
              -119.65314775609828,
              33.993913687812075
            ],
            [
              -119.648605,
              33.9940131
            ],
            [
              -119.64860455421143,
              33.99399872954262
            ],
            [
              -119.606453,
              33.9949139
            ]
          ]
        ]
      }
    },
    {
      "type": "Feature",
      "properties": {
        "region_id": "ca_006",
        "region_number": 6,
        "region_name": "channelIslands",
        "dataset": "ca",
        "source_tiff_count": 35,
        "geometry_method": "dissolved_source_tiff_bboxes",
        "feature_type": "region_centroid",
        "valid_pixel_count": 188114661
      },
      "geometry": {
        "type": "Point",
        "coordinates": [
          -119.65387290242968,
          33.97185352816863
        ]
      }
    },
    {
      "type": "Feature",
      "properties": {
        "region_id": "ca_007",
        "region_number": 7,
        "region_name": "refugioStateBeach",
        "dataset": "ca",
        "source_tiff_count": 32,
        "geometry_method": "dissolved_source_tiff_bboxes",
        "feature_type": "region_polygon",
        "valid_pixel_count": 22420445
      },
      "geometry": {
        "type": "Polygon",
        "coordinates": [
          [
            [
              -120.07121685391697,
              34.4511655119106
            ],
            [
              -120.0718455,
              34.4683149
            ],
            [
              -120.07061630230136,
              34.46834562463736
            ],
            [
              -120.0705924,
              34.4690294
            ],
            [
              -120.07059238768267,
              34.46902939970281
            ],
            [
              -120.0705905,
              34.4690834
            ],
            [
              -120.0555881935422,
              34.4687212624963
            ],
            [
              -120.0336149,
              34.4692705
            ],
            [
              -120.0329382,
              34.450575
            ],
            [
              -120.03422067935095,
              34.45054295647061
            ],
            [
              -120.0342406,
              34.4499801
            ],
            [
              -120.04569145601313,
              34.45025635211416
            ],
            [
              -120.0711602,
              34.44962
            ],
            [
              -120.07120609071758,
              34.45087189315067
            ],
            [
              -120.0712271,
              34.4508724
            ],
            [
              -120.07121685391697,
              34.4511655119106
            ]
          ]
        ]
      }
    },
    {
      "type": "Feature",
      "properties": {
        "region_id": "ca_007",
        "region_number": 7,
        "region_name": "refugioStateBeach",
        "dataset": "ca",
        "source_tiff_count": 32,
        "geometry_method": "dissolved_source_tiff_bboxes",
        "feature_type": "region_centroid",
        "valid_pixel_count": 22420445
      },
      "geometry": {
        "type": "Point",
        "coordinates": [
          -120.05242689724732,
          34.459475421382884
        ]
      }
    },
    {
      "type": "Feature",
      "properties": {
        "region_id": "ca_008",
        "region_number": 8,
        "region_name": "bigSur",
        "dataset": "ca",
        "source_tiff_count": 65,
        "geometry_method": "dissolved_source_tiff_bboxes",
        "feature_type": "region_polygon",
        "valid_pixel_count": 214645298
      },
      "geometry": {
        "type": "Polygon",
        "coordinates": [
          [
            [
              -121.8301291,
              36.3172224
            ],
            [
              -121.83013480297795,
              36.31684015004408
            ],
            [
              -121.8189747,
              36.316734
            ],
            [
              -121.8199392,
              36.2527015
            ],
            [
              -121.83109014394353,
              36.252807105451275
            ],
            [
              -121.8311034,
              36.2519186
            ],
            [
              -121.914803,
              36.2527073
            ],
            [
              -121.9138984,
              36.3180129
            ],
            [
              -121.91196030956245,
              36.317994610955076
            ],
            [
              -121.9119603,
              36.3179953
            ],
            [
              -121.8301291,
              36.3172224
            ]
          ]
        ]
      }
    },
    {
      "type": "Feature",
      "properties": {
        "region_id": "ca_008",
        "region_number": 8,
        "region_name": "bigSur",
        "dataset": "ca",
        "source_tiff_count": 65,
        "geometry_method": "dissolved_source_tiff_bboxes",
        "feature_type": "region_centroid",
        "valid_pixel_count": 214645298
      },
      "geometry": {
        "type": "Point",
        "coordinates": [
          -121.86700145433095,
          36.28494747958662
        ]
      }
    },
    {
      "type": "Feature",
      "properties": {
        "region_id": "ca_009",
        "region_number": 9,
        "region_name": "monterey",
        "dataset": "ca",
        "source_tiff_count": 14,
        "geometry_method": "dissolved_source_tiff_bboxes",
        "feature_type": "region_polygon",
        "valid_pixel_count": 85196378
      },
      "geometry": {
        "type": "Polygon",
        "coordinates": [
          [
            [
              -122.0206441,
              36.5945196
            ],
            [
              -122.01350124153585,
              36.59445743120036
            ],
            [
              -122.0135012,
              36.5944607
            ],
            [
              -122.00816922897268,
              36.59441413216052
            ],
            [
              -122.0081692,
              36.5944164
            ],
            [
              -122.00176413446695,
              36.59436031955761
            ],
            [
              -122.0017641,
              36.594363
            ],
            [
              -121.9047844,
              36.5935112
            ],
            [
              -121.9058524,
              36.5177982
            ],
            [
              -122.0215993,
              36.5188038
            ],
            [
              -122.0206441,
              36.5945196
            ]
          ]
        ]
      }
    },
    {
      "type": "Feature",
      "properties": {
        "region_id": "ca_009",
        "region_number": 9,
        "region_name": "monterey",
        "dataset": "ca",
        "source_tiff_count": 14,
        "geometry_method": "dissolved_source_tiff_bboxes",
        "feature_type": "region_centroid",
        "valid_pixel_count": 85196378
      },
      "geometry": {
        "type": "Point",
        "coordinates": [
          -121.9632207166242,
          36.55616618821711
        ]
      }
    },
    {
      "type": "Feature",
      "properties": {
        "region_id": "ca_010",
        "region_number": 10,
        "region_name": "northernCalifornia",
        "dataset": "ca",
        "source_tiff_count": 33,
        "geometry_method": "dissolved_source_tiff_bboxes",
        "feature_type": "region_polygon",
        "valid_pixel_count": 62938967
      },
      "geometry": {
        "type": "Polygon",
        "coordinates": [
          [
            [
              -123.6824612,
              38.8806084
            ],
            [
              -123.7528406,
              38.8801759
            ],
            [
              -123.7534694,
              38.9396736
            ],
            [
              -123.6830312,
              38.9401071
            ],
            [
              -123.6824612,
              38.8806084
            ]
          ]
        ]
      }
    },
    {
      "type": "Feature",
      "properties": {
        "region_id": "ca_010",
        "region_number": 10,
        "region_name": "northernCalifornia",
        "dataset": "ca",
        "source_tiff_count": 33,
        "geometry_method": "dissolved_source_tiff_bboxes",
        "feature_type": "region_centroid",
        "valid_pixel_count": 62938967
      },
      "geometry": {
        "type": "Point",
        "coordinates": [
          -123.717950578768,
          38.91014539153235
        ]
      }
    },
    {
      "type": "Feature",
      "properties": {
        "region_id": "ca_011",
        "region_number": 11,
        "region_name": "calvertIsland",
        "dataset": "ca",
        "source_tiff_count": 12,
        "geometry_method": "dissolved_source_tiff_bboxes",
        "feature_type": "region_polygon",
        "valid_pixel_count": 8627529
      },
      "geometry": {
        "type": "Polygon",
        "coordinates": [
          [
            [
              -128.168372,
              51.6645499
            ],
            [
              -128.1369278,
              51.6643231
            ],
            [
              -128.1374481,
              51.6369201
            ],
            [
              -128.1688733,
              51.6371467
            ],
            [
              -128.168372,
              51.6645499
            ]
          ]
        ]
      }
    },
    {
      "type": "Feature",
      "properties": {
        "region_id": "ca_011",
        "region_number": 11,
        "region_name": "calvertIsland",
        "dataset": "ca",
        "source_tiff_count": 12,
        "geometry_method": "dissolved_source_tiff_bboxes",
        "feature_type": "region_centroid",
        "valid_pixel_count": 8627529
      },
      "geometry": {
        "type": "Point",
        "coordinates": [
          -128.15290528028925,
          51.65073633039448
        ]
      }
    },
    {
      "type": "Feature",
      "properties": {
        "region_id": "bc",
        "region_number": null,
        "region_name": "british_columbia",
        "dataset": "bc",
        "source_tiff_count": 30,
        "geometry_method": "dissolved_source_tiff_bboxes",
        "feature_type": "region_polygon",
        "valid_pixel_count": 184559051
      },
      "geometry": {
        "type": "MultiPolygon",
        "coordinates": [
          [
            [
              [
                -128.4548878,
                51.8512816
              ],
              [
                -128.6000539,
                51.8518647
              ],
              [
                -128.5992549,
                51.9417647
              ],
              [
                -128.46177001756743,
                51.94121175889802
              ],
              [
                -128.4617699097145,
                51.941220758866436
              ],
              [
                -128.5992548,
                51.9417737
              ],
              [
                -128.59865334442313,
                52.00909194492602
              ],
              [
                -128.6066522,
                52.0091236
              ],
              [
                -128.6058619,
                52.0990212
              ],
              [
                -128.5757305373745,
                52.09890182409222
              ],
              [
                -128.57573045190557,
                52.09891082414979
              ],
              [
                -128.6058618,
                52.0990302
              ],
              [
                -128.6050674,
                52.1889265
              ],
              [
                -128.5748753510053,
                52.18880673205831
              ],
              [
                -128.5742758,
                52.2516013
              ],
              [
                -128.4278091,
                52.2509823
              ],
              [
                -128.4286148577034,
                52.18818908176831
              ],
              [
                -128.4286002281473,
                52.18818900559755
              ],
              [
                -128.4277944,
                52.2509822
              ],
              [
                -128.2813338,
                52.2501815
              ],
              [
                -128.28234576502322,
                52.18739007270386
              ],
              [
                -128.1662727,
                52.1866418
              ],
              [
                -128.16677894496064,
                52.15950493874326
              ],
              [
                -128.1366103,
                52.1593028
              ],
              [
                -128.1383451,
                52.0694142
              ],
              [
                -128.16845312013533,
                52.06961567807655
              ],
              [
                -128.1696178,
                52.0068536
              ],
              [
                -128.3152796,
                52.0077903
              ],
              [
                -128.31431914613012,
                52.07055452209014
              ],
              [
                -128.31433371626517,
                52.070554601547244
              ],
              [
                -128.3152941,
                52.0077904
              ],
              [
                -128.34942677185128,
                52.007967683976155
              ],
              [
                -128.34942690219683,
                52.00795868373608
              ],
              [
                -128.3152943,
                52.0077814
              ],
              [
                -128.3166626,
                51.9178867
              ],
              [
                -128.35072706169956,
                51.91806342161321
              ],
              [
                -128.3516967,
                51.8507582
              ],
              [
                -128.4548732,
                51.8512815
              ],
              [
                -128.45405772997594,
                51.91859948651726
              ],
              [
                -128.4540723293627,
                51.918599562256816
              ],
              [
                -128.4548878,
                51.8512816
              ]
            ],
            [
              [
                -128.3129530208161,
                52.160455859192254
              ],
              [
                -128.31295315804516,
                52.160446938320874
              ],
              [
                -128.31293855773322,
                52.160446858599485
              ],
              [
                -128.3129384205043,
                52.16045577946093
              ],
              [
                -128.3129530208161,
                52.160455859192254
              ]
            ],
            [
              [
                -128.28378942606528,
                52.097489792204314
              ],
              [
                -128.28377482596923,
                52.097489698194266
              ],
              [
                -128.28377468168034,
                52.097498697909096
              ],
              [
                -128.2837892817764,
                52.09749879191914
              ],
              [
                -128.28378942606528,
                52.097489792204314
              ]
            ],
            [
              [
                -128.46020694173674,
                52.071312883657804
              ],
              [
                -128.46022151202214,
                52.07131294508409
              ],
              [
                -128.46070571168354,
                52.03111762148829
              ],
              [
                -128.46069118607605,
                52.03111756299622
              ],
              [
                -128.46020694173674,
                52.071312883657804
              ]
            ],
            [
              [
                -128.45297907166844,
                52.0084965306713
              ],
              [
                -128.45296447228583,
                52.008496454842536
              ],
              [
                -128.4529643626904,
                52.00850545482121
              ],
              [
                -128.4529789620729,
                52.00850553064993
              ],
              [
                -128.45297907166844,
                52.0084965306713
              ]
            ],
            [
              [
                -128.4591345333237,
                52.1612166784565
              ],
              [
                -128.45913464135015,
                52.16120775784892
              ],
              [
                -128.4591200408855,
                52.16120769621935
              ],
              [
                -128.45911993285915,
                52.161216616816944
              ],
              [
                -128.4591345333237,
                52.1612166784565
              ]
            ]
          ],
          [
            [
              [
                -128.3166481,
                51.9178866
              ],
              [
                -128.3152797,
                52.0077813
              ],
              [
                -128.169618,
                52.0068446
              ],
              [
                -128.1699926221801,
                51.98655086453815
              ],
              [
                -128.1699780446524,
                51.986550770141804
              ],
              [
                -128.1696034,
                52.0068445
              ],
              [
                -128.1230179,
                52.0065069
              ],
              [
                -128.1247705,
                51.9166162
              ],
              [
                -128.14398853672935,
                51.91675533652904
              ],
              [
                -128.1450596,
                51.8603985
              ],
              [
                -128.166883,
                51.860555
              ],
              [
                -128.1658391841421,
                51.91691353287768
              ],
              [
                -128.1658537467369,
                51.9169136383093
              ],
              [
                -128.1668975,
                51.8605551
              ],
              [
                -128.3120862,
                51.8614937
              ],
              [
                -128.3112242985063,
                51.9178517635202
              ],
              [
                -128.3166481,
                51.9178866
              ]
            ],
            [
              [
                -128.1706584380801,
                51.95048281395415
              ],
              [
                -128.17064390067048,
                51.95048271987185
              ],
              [
                -128.17064373629418,
                51.95049162379794
              ],
              [
                -128.1706582737135,
                51.95049171789023
              ],
              [
                -128.1706584380801,
                51.95048281395415
              ]
            ]
          ],
          [
            [
              [
                -127.94555,
                51.3902573
              ],
              [
                -128.0506955,
                51.3911563
              ],
              [
                -128.0488302,
                51.4810532
              ],
              [
                -127.9434781,
                51.4801513
              ],
              [
                -127.94555,
                51.3902573
              ]
            ]
          ],
          [
            [
              [
                -128.194404,
                51.3922323
              ],
              [
                -128.192821,
                51.4821327
              ],
              [
                -128.0488446,
                51.4810533
              ],
              [
                -128.0507099,
                51.3911564
              ],
              [
                -128.194404,
                51.3922323
              ]
            ]
          ],
          [
            [
              [
                -128.0128333,
                51.5834261
              ],
              [
                -128.0147763,
                51.4935317
              ],
              [
                -128.0485788286244,
                51.49379491068781
              ],
              [
                -128.0488444,
                51.4810623
              ],
              [
                -128.1928208,
                51.4821416
              ],
              [
                -128.1912295,
                51.5720406
              ],
              [
                -128.1573672753632,
                51.57178641049744
              ],
              [
                -128.1571317,
                51.584551
              ],
              [
                -128.0128333,
                51.5834261
              ]
            ]
          ],
          [
            [
              [
                -128.1571315,
                51.58456
              ],
              [
                -128.1554638,
                51.6744566
              ],
              [
                -128.01088,
                51.673328
              ],
              [
                -128.0128331,
                51.5834351
              ],
              [
                -128.1571315,
                51.58456
              ]
            ]
          ],
          [
            [
              [
                -128.301453,
                51.5855077
              ],
              [
                -128.3000708,
                51.6754073
              ],
              [
                -128.1554783,
                51.6744567
              ],
              [
                -128.157146,
                51.5845601
              ],
              [
                -128.301453,
                51.5855077
              ]
            ]
          ],
          [
            [
              [
                -128.1554636,
                51.6744656
              ],
              [
                -128.1537872,
                51.7643607
              ],
              [
                -128.0089165,
                51.7632285
              ],
              [
                -128.0108798,
                51.673337
              ],
              [
                -128.1554636,
                51.6744656
              ]
            ]
          ],
          [
            [
              [
                -128.3134539,
                51.7715877
              ],
              [
                -128.3120863,
                51.8614847
              ],
              [
                -128.1668976,
                51.8605462
              ],
              [
                -128.1685538,
                51.7706522
              ],
              [
                -128.3134539,
                51.7715877
              ]
            ]
          ]
        ]
      }
    },
    {
      "type": "Feature",
      "properties": {
        "region_id": "bc",
        "region_number": null,
        "region_name": "british_columbia",
        "dataset": "bc",
        "source_tiff_count": 30,
        "geometry_method": "dissolved_source_tiff_bboxes",
        "feature_type": "region_centroid",
        "valid_pixel_count": 184559051
      },
      "geometry": {
        "type": "Point",
        "coordinates": [
          -128.29131394809096,
          51.888993043392134
        ]
      }
    }
  ]
}
